QIANFAN-65              
1 62795U 25016L   25227.63435188  .00000086  00000+0  11443-3 0  9998
2 62795  88.9812 115.3737 0013577 336.2071  23.8451 13.50963286 31166
QIANFAN-66              
1 62796U 25016M   25227.58898906  .00000093  00000+0  12539-3 0  9999
2 62796  88.9832 115.3251 0014536 331.1944  28.8403 13.50958420 31200
QIANFAN-67              
1 62797U 25016N   25227.51908898  .00000090  00000+0  12115-3 0  9992
2 62797  88.9823 115.3696 0014763 338.4382  21.6146 13.50967099 31164
QIANFAN-68              
1 62798U 25016P   25227.52316409  .00000093  00000+0  12598-3 0  9993
2 62798  88.9826 115.4130 0015321 336.3578  23.6867 13.50964512 31144
QIANFAN-69              
1 62799U 25016Q   25227.52726189  .00000098  00000+0  13324-3 0  9997
2 62799  88.9804 115.3048 0015529 337.2632  22.7829 13.50960112 31183
QIANFAN-70              
1 62800U 25016R   25227.54376519  .00000103  00000+0  14166-3 0  9992
2 62800  88.9826 115.4162 0014769 327.5894  32.4348 13.50963968 31147
QIANFAN-71              
1 62801U 25016S   25227.53973319  .00000093  00000+0  12518-3 0  9990
2 62801  88.9819 115.4035 0015569 340.8343  19.2221 13.50963703 31145
QIANFAN-72              
1 62802U 25016T   25227.53550244  .00000100  00000+0  13621-3 0  9994
2 62802  88.9809 115.4240 0019192 345.9683  14.0933 13.50959145 31139
